NORAD_CAT_ID,OBJECT_NAME,OBJECT_TYPE,EPOCH,MEAN_MOTION,ECCENTRICITY,INCLINATION,RA_OF_ASC_NODE,ARG_OF_PERICENTER,MEAN_ANOMALY,BSTAR,MEAN_MOTION_DOT,MEAN_MOTION_DDOT,TLE_LINE0,TLE_LINE1,TLE_LINE2,SEMIMAJOR_AXIS,PERIOD,APOGEE,PERIGEE,DECAYED
53531.0,STARLINK-4487,PAYLOAD,2022-12-26 11:58:12,15.08850064,0.0002744,53.2165,282.8207,36.8408,323.2773,8.3883e-05,1.047e-05,0.0,0 STARLINK-4487,1 53531U 22101E   22360.49875130  .00001047  00000-0  83883-4 0  9999,2 53531  53.2165 282.8207 0002744  36.8408 323.2773 15.08850064 19651,6917.85,95.437,541.613,537.816,0.0
53531.0,STARLINK-4487,PAYLOAD,2022-12-27 00:41:17,15.0884734,0.0002738,53.2164,280.4419,37.8515,322.267,0.00010205,1.336e-05,0.0,0 STARLINK-4487,1 53531U 22101E   22361.02867171  .00001336  00000-0  10205-3 0  9993,2 53531  53.2164 280.4419 0002738  37.8515 322.2670 15.08847340 19739,6917.858,95.437,541.617,537.8290000000002,0.0
53531.0,STARLINK-4487,PAYLOAD,2022-12-27 07:02:49,15.08857548,0.0002741,53.2163,279.2523,35.926,324.1916,0.00012271,1.666e-05,0.0,0 STARLINK-4487,1 53531U 22101E   22361.29362487  .00001666  00000-0  12271-3 0  9993,2 53531  53.2163 279.2523 0002741  35.9260 324.1916 15.08857548 19779,6917.8269999999975,95.436,541.5880000000002,537.7959999999998,0.0
53531.0,STARLINK-4487,PAYLOAD,2022-12-27 11:48:58,15.08862997,0.0002728,53.2162,278.3602,36.6635,323.4543,0.00039126,5.948e-05,0.0,0 STARLINK-4487,1 53531U 22101E   22361.49234197  .00005948  00000-0  39126-3 0  9996,2 53531  53.2162 278.3602 0002728  36.6635 323.4543 15.08862997 19801,6917.81,95.436,541.562,537.788,0.0
53531.0,STARLINK-4487,PAYLOAD,2022-12-28 02:07:26,15.08864639,0.0002744,53.2157,275.6841,37.4289,322.6894,0.00039275,5.972e-05,0.0,0 STARLINK-4487,1 53531U 22101E   22362.08849635  .00005972  00000-0  39275-3 0  9993,2 53531  53.2157 275.6841 0002744  37.4289 322.6894 15.08864639 19896,6917.805,95.436,541.568,537.7719999999998,0.0
53531.0,STARLINK-4487,PAYLOAD,2022-12-29 00:22:50,15.08840006,0.0002793999999999,53.215,271.5207,35.5328,324.585,-0.00011132,-2.060000000000001e-05,0.0,0 STARLINK-4487,1 53531U 22101E   22363.01586227 -.00002060  00000-0 -11132-3 0  9991,2 53531  53.2150 271.5207 0002794  35.5328 324.5850 15.08840006 20031,6917.88,95.438,541.678,537.813,0.0
53531.0,STARLINK-4487,PAYLOAD,2022-12-29 11:30:33,15.08814458,0.0002638,53.215,269.44,28.2741,331.8394,-0.00023549,-4.032e-05,0.0,0 STARLINK-4487,1 53531U 22101E   22363.47955275 -.00004032  00000-0 -23549-3 0  9990,2 53531  53.2150 269.4400 0002638  28.2741 331.8394 15.08814458 20101,6917.958000000001,95.439,541.648,537.999,0.0
53531.0,STARLINK-4487,PAYLOAD,2022-12-30 00:13:39,15.088189800000002,0.0002396999999999,53.2155,267.0591,38.6358,321.4805,-0.00029497,-4.977e-05,0.0,0 STARLINK-4487,1 53531U 22101E   22364.00948512 -.00004977  00000-0 -29497-3 0  9992,2 53531  53.2155 267.0591 0002397  38.6358 321.4805 15.08818980 20186,6917.945,95.439,541.4680000000002,538.151,0.0
53531.0,STARLINK-4487,PAYLOAD,2022-12-31 03:15:11,15.08860383,0.0002534,53.2155,262.0031,36.0648,324.0514,0.00072187,0.00011226,0.0,0 STARLINK-4487,1 53531U 22101E   22365.13554994  .00011226  00000-0  72187-3 0  9991,2 53531  53.2155 262.0031 0002534  36.0648 324.0514 15.08860383 20356,6917.818,95.436,541.436,537.93,0.0
53531.0,STARLINK-4487,PAYLOAD,2022-12-31 19:09:05,15.08816052,0.0002516,53.2152,259.0321,35.1493,324.9665,2.5871e-05,1.23e-06,0.0,0 STARLINK-4487,1 53531U 22101E   22365.79798018  .00000123  00000-0  25871-4 0  9993,2 53531  53.2152 259.0321 0002516  35.1493 324.9665 15.08816052 20450,6917.954000000002,95.439,541.559,538.078,0.0
53531.0,STARLINK-4487,PAYLOAD,2023-01-01 03:06:00,15.08824669,0.0002395,53.2154,257.5442,38.0347,322.0814,3.968e-05,3.43e-06,0.0,0 STARLINK-4487,1 53531U 22101E   23001.12917693  .00000343  00000-0  39680-4 0  9997,2 53531  53.2154 257.5442 0002395  38.0347 322.0814 15.08824669 20508,6917.927,95.439,541.4490000000002,538.135,0.0
53531.0,STARLINK-4487,PAYLOAD,2023-01-01 09:27:32,15.08833114,0.0001669,53.2155,256.355,47.2051,312.9082,3.4151e-05,2.55e-06,0.0,0 STARLINK-4487,1 53531U 22101E   23001.39413120  .00000255  00000-0  34151-4 0  9992,2 53531  53.2155 256.3550 0001669  47.2051 312.9082 15.08833114 20547,6917.901,95.438,540.9209999999998,538.612,0.0
53531.0,STARLINK-4487,PAYLOAD,2023-01-01 20:35:14,15.08843138,0.0002316,53.2155,254.2734,40.3545,319.7618,0.00028957,4.324e-05,0.0,0 STARLINK-4487,1 53531U 22101E   23001.85781014  .00004324  00000-0  28957-3 0  9990,2 53531  53.2155 254.2734 0002316  40.3545 319.7618 15.08843138 20615,6917.871,95.437,541.3380000000002,538.134,0.0
53531.0,STARLINK-4487,PAYLOAD,2023-01-02 02:56:47,15.08853554,0.0002246,53.2156,253.0837,42.3367,317.7798,0.00094495,0.00014789,0.0,0 STARLINK-4487,1 53531U 22101E   23002.12277142  .00014789  00000-0  94495-3 0  9999,2 53531  53.2156 253.0837 0002246  42.3367 317.7798 15.08853554 20657,6917.839,95.437,541.258,538.15,0.0
53531.0,STARLINK-4487,PAYLOAD,2023-01-02 09:18:20,15.08846118,0.0002162,53.216,251.8921,40.7421,319.3733,0.00053791,8.285e-05,0.0,0 STARLINK-4487,1 53531U 22101E   23002.38773202  .00008285  00000-0  53791-3 0  9993,2 53531  53.2160 251.8921 0002162  40.7421 319.3733 15.08846118 20691,6917.861999999999,95.437,541.222,538.231,0.0
53531.0,STARLINK-4487,PAYLOAD,2023-01-02 17:15:16,15.08836449,0.0002278999999999,53.2153,250.4078,44.4342,315.6833,0.00020861,3.033e-05,0.0,0 STARLINK-4487,1 53531U 22101E   23002.71893551  .00003033  00000-0  20861-3 0  9998,2 53531  53.2153 250.4078 0002279  44.4342 315.6833 15.08836449 20745,6917.891,95.438,541.3330000000002,538.18,0.0
53531.0,STARLINK-4487,PAYLOAD,2023-01-03 02:47:34,15.08849346,0.0002273,53.2152,248.6233,50.6176,309.5017,0.00034742,5.247e-05,0.0,0 STARLINK-4487,1 53531U 22101E   23003.11637119  .00005247  00000-0  34742-3 0  9991,2 53531  53.2152 248.6233 0002273  50.6176 309.5017 15.08849346 20807,6917.852,95.437,541.289,538.144,0.0
53531.0,STARLINK-4487,PAYLOAD,2023-01-03 09:09:07,15.08840902,0.000218,53.215,247.4333,51.3037,308.815,0.00020695,3.007e-05,0.0,0 STARLINK-4487,1 53531U 22101E   23003.38133273  .00003007  00000-0  20695-3 0  9996,2 53531  53.2150 247.4333 0002180  51.3037 308.8150 15.08840902 20847,6917.878000000002,95.437,541.251,538.235,0.0
53531.0,STARLINK-4487,PAYLOAD,2023-01-04 08:59:54,15.08844232,0.0002215,53.2154,242.9736,52.6122,307.5071,0.00016359,2.317e-05,0.0,0 STARLINK-4487,1 53531U 22101E   23004.37493378  .00002317  00000-0  16359-3 0  9996,2 53531  53.2154 242.9736 0002215  52.6122 307.5071 15.08844232 20990,6917.8669999999975,95.437,541.265,538.2,0.0
53531.0,STARLINK-4487,PAYLOAD,2023-01-04 21:42:59,15.08850783,0.0002157,53.2156,240.595,54.0665,306.0527,0.00034339,5.183e-05,0.0,0 STARLINK-4487,1 53531U 22101E   23004.90485085  .00005183  00000-0  34339-3 0  9993,2 53531  53.2156 240.5950 0002157  54.0665 306.0527 15.08850783 21075,6917.847,95.437,541.205,538.22,0.0
53531.0,STARLINK-4487,PAYLOAD,2023-01-05 00:53:45,15.08854514,0.0002243,53.2153,239.9996,54.9033,305.2169,0.00039486,6.004e-05,0.0,0 STARLINK-4487,1 53531U 22101E   23005.03732890  .00006004  00000-0  39486-3 0  9998,2 53531  53.2153 239.9996 0002243  54.9033 305.2169 15.08854514 21099,6917.8359999999975,95.437,541.253,538.149,0.0
53531.0,STARLINK-4487,PAYLOAD,2023-01-05 08:50:41,15.08839523,0.0002011,53.215,238.5141,54.0593,306.0586,6.2443e-05,7.06e-06,0.0,0 STARLINK-4487,1 53531U 22101E   23005.36853365  .00000706  00000-0  62443-4 0  9998,2 53531  53.2150 238.5141 0002011  54.0593 306.0586 15.08839523 21149,6917.882,95.438,541.138,538.356,0.0
53531.0,STARLINK-4487,PAYLOAD,2023-01-05 15:12:14,15.08830067,0.0002256999999999,53.215,237.3241,59.7783,300.3432,-6.6721e-05,-1.35e-05,0.0,0 STARLINK-4487,1 53531U 22101E   23005.63350014 -.00001350  00000-0 -66721-4 0  9992,2 53531  53.2150 237.3241 0002257  59.7783 300.3432 15.08830067 21187,6917.911,95.438,541.337,538.214,0.0
53531.0,STARLINK-4487,PAYLOAD,2023-01-06 08:41:28,15.08838388,0.0002093,53.214,234.0517,64.868,295.2529,0.00035964,5.44e-05,0.0,0 STARLINK-4487,1 53531U 22101E   23006.36214072  .00005440  00000-0  35964-3 0  9992,2 53531  53.2140 234.0517 0002093  64.8680 295.2529 15.08838388 21292,6917.885,95.438,541.198,538.302,0.0
53531.0,STARLINK-4487,PAYLOAD,2023-01-06 18:13:47,15.08846894,0.0002096,53.2138,232.2682,63.8625,296.2583,0.00087892,0.0001373,0.0,0 STARLINK-4487,1 53531U 22101E   23006.75958168  .00013730  00000-0  87892-3 0  9994,2 53531  53.2138 232.2682 0002096  63.8625 296.2583 15.08846894 21352,6917.859,95.437,541.174,538.274,0.0
53531.0,STARLINK-4487,PAYLOAD,2023-01-07 00:35:20,15.08856312,0.0002104,53.2138,231.0788,63.4894,296.6314,0.00092674,0.00014498,0.0,0 STARLINK-4487,1 53531U 22101E   23007.02453903  .00014498  00000-0  92674-3 0  9998,2 53531  53.2138 231.0788 0002104  63.4894 296.6314 15.08856312 21396,6917.831,95.437,541.151,538.24,0.0
53531.0,STARLINK-4487,PAYLOAD,2023-01-07 14:53:48,15.08857714,0.0002512,53.2122,228.4017,76.6724,283.4548,0.00073166,0.00011381,0.0,0 STARLINK-4487,1 53531U 22101E   23007.62069871  .00011381  00000-0  73166-3 0  9994,2 53531  53.2122 228.4017 0002512  76.6724 283.4548 15.08857714 21485,6917.826,95.436,541.429,537.953,0.0
53531.0,STARLINK-4487,PAYLOAD,2023-01-07 21:15:20,15.08850797,0.0002153,53.2139,227.2127,69.2406,290.8817,0.000481,7.378e-05,0.0,0 STARLINK-4487,1 53531U 22101E   23007.88565818  .00007378  00000-0  48100-3 0  9995,2 53531  53.2139 227.2127 0002153  69.2406 290.8817 15.08850797 21528,6917.847,95.437,541.202,538.2230000000002,0.0
53531.0,STARLINK-4487,PAYLOAD,2023-01-08 00:26:07,15.08846839,0.0002105,53.214,226.6173,67.7908,292.3307,0.0002251,3.297e-05,0.0,0 STARLINK-4487,1 53531U 22101E   23008.01813836  .00003297  00000-0  22510-3 0  9990,2 53531  53.2140 226.6173 0002105  67.7908 292.3307 15.08846839 21546,6917.859,95.437,541.181,538.268,0.0
